OBJECT_NAME,OBJECT_ID,EPOCH,MEAN_MOTION,ECCENTRICITY,INCLINATION,RA_OF_ASC_NODE,ARG_OF_PERICENTER,MEAN_ANOMALY,EPHEMERIS_TYPE,CLASSIFICATION_TYPE,NORAD_CAT_ID,ELEMENT_SET_NO,REV_AT_EPOCH,BSTAR,MEAN_MOTION_DOT,MEAN_MOTION_DDOT
STARLINK-37998,2026-145C,2026-07-02T16:00:01.998720,15.81149666,.000142,97.2842,29.8880,77.3034,315.5844,0,U,69679,999,241,-.50756E-2,-.892167E-2,0
STARLINK-37994,2026-145D,2026-07-02T16:00:01.998720,15.80236016,.0001369,97.2843,29.8878,75.0813,318.3127,0,U,69680,999,241,-.12377E-1,-.2001327E-1,0
STARLINK-37992,2026-145E,2026-07-02T16:00:01.998720,15.80267378,.0001368,97.2843,29.8886,93.7404,301.4797,0,U,69681,999,241,-.12273E-1,-.1989262E-1,0
STARLINK-37997,2026-145F,2026-07-02T16:00:01.998720,15.80764813,.0001793,97.2843,29.8900,105.8362,291.1547,0,U,69682,999,241,-.11997E-1,-.1990185E-1,0
STARLINK-37990,2026-145G,2026-07-02T16:00:01.998720,15.78654469,.0001626,97.2840,29.8919,84.5910,318.3993,0,U,69683,999,241,-.13084E-1,-.1972863E-1,0
STARLINK-37951,2026-145H,2026-07-02T16:00:01.998720,15.79776431,.0001486,97.2839,29.8928,73.4482,331.7876,0,U,69684,999,241,-.12596E-1,-.1995234E-1,0
STARLINK-37957,2026-145J,2026-07-02T16:00:01.998720,15.80411078,.0001265,97.2840,29.8944,68.0012,340.5422,0,U,69685,999,241,-.12048E-1,-.1968852E-1,0
STARLINK-37968,2026-145K,2026-07-02T16:00:01.998720,15.81170797,.0001682,97.2845,29.9054,66.3263,8.8688,0,U,69686,999,241,-.56578E-2,-.984798E-2,0
STARLINK-37977,2026-145L,2026-07-02T16:00:01.998720,15.81261716,.0001894,97.2846,29.9079,75.9182,5.6074,0,U,69687,999,241,-.987E-2,-.1677779E-1,0
STARLINK-37908,2026-145M,2026-07-02T16:00:01.998720,15.80939842,.0001566,97.2847,29.9113,105.7016,342.4858,0,U,69688,999,241,-.13061E-2,-.244843E-2,0
STARLINK-37979,2026-145N,2026-07-02T16:00:01.998720,15.81033064,.0001714,97.2847,29.9127,91.5494,0.3826,0,U,69689,999,241,-.30972E-2,-.562403E-2,0
STARLINK-37940,2026-145P,2026-07-02T16:00:01.998720,15.81262679,.0001394,97.2847,29.9165,67.8320,32.7991,0,U,69690,999,241,-.84487E-2,-.1463776E-1,0
STARLINK-37961,2026-145Q,2026-07-02T16:00:01.998720,15.80878629,.0001462,97.2847,29.9200,71.8525,37.4723,0,U,69691,999,241,-.47269E-3,-.90016E-3,0
STARLINK-37787,2026-145R,2026-07-02T16:00:01.998720,15.80838539,.000095,97.2848,29.9244,93.1225,25.3968,0,U,69692,999,241,-.30751E-3,-.58708E-3,0
STARLINK-37962,2026-145S,2026-07-02T16:00:01.998720,15.80846209,.0001017,97.2849,29.9243,76.8988,40.9304,0,U,69693,999,241,-.31446E-3,-.60044E-3,0
STARLINK-37953,2026-145T,2026-07-02T16:00:01.998720,15.80882622,.0001878,97.2849,29.9242,92.0281,27.1354,0,U,69694,999,241,-.57403E-3,-.109076E-2,0
STARLINK-37926,2026-145U,2026-07-02T16:00:01.998720,15.80867656,.0000863,97.2849,29.9261,69.3881,53.0223,0,U,69695,999,241,-.37264E-3,-.71106E-3,0
STARLINK-37959,2026-145V,2026-07-02T16:00:01.998720,15.80822393,.0000695,97.2850,29.9262,61.3343,62.0721,0,U,69696,999,241,.67484E-4,.12807E-3,0
STARLINK-37976,2026-145W,2026-07-02T16:00:01.998720,15.80757409,.0001924,97.2854,29.9318,86.8227,49.7523,0,U,69697,999,241,.37486E-3,.72067E-3,0
STARLINK-37912,2026-145X,2026-07-02T16:00:01.998720,15.80788006,.0001384,97.2854,29.9359,112.4762,31.2572,0,U,69698,999,241,-.1413E-3,-.27089E-3,0
STARLINK-37974,2026-145Y,2026-07-02T16:00:01.998720,15.80901305,.0001238,97.2857,29.9367,65.0219,81.9308,0,U,69699,999,241,-.82218E-3,-.155463E-2,0
STARLINK-37955,2026-145Z,2026-07-02T16:00:01.998720,15.81878442,.0001577,97.2860,29.9436,71.4568,90.5595,0,U,69700,999,241,-.78949E-2,-.1386835E-1,0
STRIX-8,2026-146A,2026-07-02T04:56:49.236288,15.04334124,.0009113,41.9894,85.0428,301.8750,58.1190,0,U,69701,999,82,.43099E-3,.5929E-4,0
ELECTRON R/B,2026-146B,2026-07-02T18:21:34.951968,15.65560504,.0201864,42.0779,78.6970,293.5210,64.4548,0,U,69702,999,95,.88669E-3,.291176E-2,.31007E-4
ELECTRON KICK STAGE R/B,2026-146C,2026-07-02T17:38:41.618688,15.04858821,.0010766,41.9877,82.0825,305.2097,54.7721,0,U,69703,999,90,.37266E-3,.5176E-4,0
STARLINK-38055,2026-147A,2026-07-02T16:00:01.998720,15.95181795,.0001406,97.2840,219.2917,80.7350,18.1746,0,U,69704,999,173,-.63989E-2,-.2458902E-1,.16775E-2
STARLINK-37898,2026-147B,2026-07-02T16:00:01.998720,15.95372269,.0001397,97.2840,219.2921,80.4264,19.7607,0,U,69705,999,173,-.62633E-2,-.2431561E-1,.16448E-2
STARLINK-37970,2026-147C,2026-07-02T16:00:01.998720,15.95558175,.0001469,97.2840,219.2929,81.4911,20.0004,0,U,69706,999,173,-.61268E-2,-.2402556E-1,.16102E-2
STARLINK-37975,2026-147D,2026-07-02T16:00:01.998720,15.95753125,.0001359,97.2840,219.2934,85.2545,17.5557,0,U,69707,999,173,-.60258E-2,-.2387808E-1,.15946E-2
STARLINK-37972,2026-147E,2026-07-02T16:00:01.998720,15.95944195,.0001427,97.2839,219.2939,80.4155,23.7191,0,U,69708,999,173,-.5924E-2,-.2371838E-1,.15774E-2
