STARLINK-37998          
1 69679U 26145C   26183.66668980 -.00892167  00000+0 -50756-2 0  9993
2 69679  97.2842  29.8880 0001420  77.3034 315.5844 15.81149666  2411
STARLINK-37994          
1 69680U 26145D   26183.66668980 -.02001327  00000+0 -12377-1 0  9993
2 69680  97.2843  29.8878 0001369  75.0813 318.3127 15.80236016  2413
STARLINK-37992          
1 69681U 26145E   26183.66668980 -.01989262  00000+0 -12273-1 0  9991
2 69681  97.2843  29.8886 0001368  93.7404 301.4797 15.80267378  2416
STARLINK-37997          
1 69682U 26145F   26183.66668980 -.01990185  00000+0 -11997-1 0  9990
2 69682  97.2843  29.8900 0001793 105.8362 291.1547 15.80764813  2418
STARLINK-37990          
1 69683U 26145G   26183.66668980 -.01972863  00000+0 -13084-1 0  9993
2 69683  97.2840  29.8919 0001626  84.5910 318.3993 15.78654469  2412
STARLINK-37951          
1 69684U 26145H   26183.66668980 -.01995234  00000+0 -12596-1 0  9998
2 69684  97.2839  29.8928 0001486  73.4482 331.7876 15.79776431  2410
STARLINK-37957          
1 69685U 26145J   26183.66668980 -.01968852  00000+0 -12048-1 0  9997
2 69685  97.2840  29.8944 0001265  68.0012 340.5422 15.80411078  2415
STARLINK-37968          
1 69686U 26145K   26183.66668980 -.00984798  00000+0 -56578-2 0  9991
2 69686  97.2845  29.9054 0001682  66.3263   8.8688 15.81170797  2415
STARLINK-37977          
1 69687U 26145L   26183.66668980 -.01677779  00000+0 -98700-2 0  9994
2 69687  97.2846  29.9079 0001894  75.9182   5.6074 15.81261716  2411
STARLINK-37908          
1 69688U 26145M   26183.66668980 -.00244843  00000+0 -13061-2 0  9993
2 69688  97.2847  29.9113 0001566 105.7016 342.4858 15.80939842  2419
STARLINK-37979          
1 69689U 26145N   26183.66668980 -.00562403  00000+0 -30972-2 0  9999
2 69689  97.2847  29.9127 0001714  91.5494   0.3826 15.81033064  2419
STARLINK-37940          
1 69690U 26145P   26183.66668980 -.01463776  00000+0 -84487-2 0  9995
2 69690  97.2847  29.9165 0001394  67.8320  32.7991 15.81262679  2419
STARLINK-37961          
1 69691U 26145Q   26183.66668980 -.00090016  00000+0 -47269-3 0  9996
2 69691  97.2847  29.9200 0001462  71.8525  37.4723 15.80878629  2410
STARLINK-37787          
1 69692U 26145R   26183.66668980 -.00058708  00000+0 -30751-3 0  9997
2 69692  97.2848  29.9244 0000950  93.1225  25.3968 15.80838539  2418
STARLINK-37962          
1 69693U 26145S   26183.66668980 -.00060044  00000+0 -31446-3 0  9996
2 69693  97.2849  29.9243 0001017  76.8988  40.9304 15.80846209  2418
STARLINK-37953          
1 69694U 26145T   26183.66668980 -.00109076  00000+0 -57403-3 0  9997
2 69694  97.2849  29.9242 0001878  92.0281  27.1354 15.80882622  2410
STARLINK-37926          
1 69695U 26145U   26183.66668980 -.00071106  00000+0 -37264-3 0  9993
2 69695  97.2849  29.9261 0000863  69.3881  53.0223 15.80867656  2411
STARLINK-37959          
1 69696U 26145V   26183.66668980  .00012807  00000+0  67484-4 0  9993
2 69696  97.2850  29.9262 0000695  61.3343  62.0721 15.80822393  2415
STARLINK-37976          
1 69697U 26145W   26183.66668980  .00072067  00000+0  37486-3 0  9996
2 69697  97.2854  29.9318 0001924  86.8227  49.7523 15.80757409  2418
STARLINK-37912          
1 69698U 26145X   26183.66668980 -.00027089  00000+0 -14130-3 0  9994
2 69698  97.2854  29.9359 0001384 112.4762  31.2572 15.80788006  2411
STARLINK-37974          
1 69699U 26145Y   26183.66668980 -.00155463  00000+0 -82218-3 0  9995
2 69699  97.2857  29.9367 0001238  65.0219  81.9308 15.80901305  2410
STARLINK-37955          
1 69700U 26145Z   26183.66668980 -.01386835  00000+0 -78949-2 0  9993
2 69700  97.2860  29.9436 0001577  71.4568  90.5595 15.81878442  2418
STRIX-8                 
1 69701U 26146A   26183.20612542  .00005929  00000+0  43099-3 0  9996
2 69701  41.9894  85.0428 0009113 301.8750  58.1190 15.04334124   826
ELECTRON R/B            
1 69702U 26146B   26183.76498787  .00291176  31007-4  88669-3 0  9990
2 69702  42.0779  78.6970 0201864 293.5210  64.4548 15.65560504   957
ELECTRON KICK STAGE R/B 
1 69703U 26146C   26183.73520392  .00005176  00000+0  37266-3 0  9990
2 69703  41.9877  82.0825 0010766 305.2097  54.7721 15.04858821   901
STARLINK-38055          
1 69704U 26147A   26183.66668980 -.02458902  16775-2 -63989-2 0  9992
2 69704  97.2840 219.2917 0001406  80.7350  18.1746 15.95181795  1732
STARLINK-37898          
1 69705U 26147B   26183.66668980 -.02431561  16448-2 -62633-2 0  9997
2 69705  97.2840 219.2921 0001397  80.4264  19.7607 15.95372269  1739
STARLINK-37970          
1 69706U 26147C   26183.66668980 -.02402556  16102-2 -61268-2 0  9990
2 69706  97.2840 219.2929 0001469  81.4911  20.0004 15.95558175  1736
STARLINK-37975          
1 69707U 26147D   26183.66668980 -.02387808  15946-2 -60258-2 0  9996
2 69707  97.2840 219.2934 0001359  85.2545  17.5557 15.95753125  1732
STARLINK-37972          
1 69708U 26147E   26183.66668980 -.02371838  15774-2 -59240-2 0  9991
2 69708  97.2839 219.2939 0001427  80.4155  23.7191 15.95944195  1738
